STARLINK-31053          
1 58549U 23192U   26068.37731309 -.00000081  00000+0  93840-5 0  9991
2 58549  53.1606  64.4627 0001465  95.4220 264.6948 15.30191630125939
HAWK-11B                
1 62379U 24247C   26068.44730104  .00009093  00000+0  32842-3 0  9993
2 62379  45.0161 115.7610 0004690 333.0326  27.0314 15.28847070 67738
